[{"OBJECT_NAME":"ONEWEB-0369","OBJECT_ID":"2021-090S","EPOCH":"2026-03-26T02:04:56.494272","MEAN_MOTION":13.19725591,"ECCENTRICITY":0.00017588,"INCLINATION":87.9201,"RA_OF_ASC_NODE":321.5419,"ARG_OF_PERICENTER":85.4084,"MEAN_ANOMALY":274.725,"EPHEMERIS_TYPE":0,"CLASSIFICATION_TYPE":"U","NORAD_CAT_ID":49295,"ELEMENT_SET_NO":999,"REV_AT_EPOCH":21545,"BSTAR":5.8435436e-5,"MEAN_MOTION_DOT":3.6e-7,"MEAN_MOTION_DDOT":0},{"OBJECT_NAME":"ONEWEB-0370","OBJECT_ID":"2021-090T","EPOCH":"2026-03-26T07:04:13.545408","MEAN_MOTION":13.20771529,"ECCENTRICITY":0.0001798,"INCLINATION":87.9149,"RA_OF_ASC_NODE":290.9916,"ARG_OF_PERICENTER":79.3537,"MEAN_ANOMALY":280.7799,"EPHEMERIS_TYPE":0,"CLASSIFICATION_TYPE":"U","NORAD_CAT_ID":49296,"ELEMENT_SET_NO":999,"REV_AT_EPOCH":21892,"BSTAR":0.00018524,"MEAN_MOTION_DOT":8.8e-7,"MEAN_MOTION_DDOT":0},{"OBJECT_NAME":"ONEWEB-0371","OBJECT_ID":"2021-090U","EPOCH":"2026-03-26T09:33:00.872928","MEAN_MOTION":13.19726563,"ECCENTRICITY":0.0001857,"INCLINATION":87.92,"RA_OF_ASC_NODE":321.469,"ARG_OF_PERICENTER":81.4995,"MEAN_ANOMALY":278.6348,"EPHEMERIS_TYPE":0,"CLASSIFICATION_TYPE":"U","NORAD_CAT_ID":49297,"ELEMENT_SET_NO":999,"REV_AT_EPOCH":21553,"BSTAR":-6.1944e-5,"MEAN_MOTION_DOT":-1.2e-7,"MEAN_MOTION_DDOT":0},{"OBJECT_NAME":"ONEWEB-0372","OBJECT_ID":"2021-090V","EPOCH":"2026-03-26T06:48:07.029216","MEAN_MOTION":13.2077249,"ECCENTRICITY":0.0001806,"INCLINATION":87.9149,"RA_OF_ASC_NODE":290.9943,"ARG_OF_PERICENTER":90.7984,"MEAN_ANOMALY":269.3356,"EPHEMERIS_TYPE":0,"CLASSIFICATION_TYPE":"U","NORAD_CAT_ID":49298,"ELEMENT_SET_NO":999,"REV_AT_EPOCH":21889,"BSTAR":0.00032124,"MEAN_MOTION_DOT":1.44e-6,"MEAN_MOTION_DDOT":0},{"OBJECT_NAME":"ONEWEB-0373","OBJECT_ID":"2021-090W","EPOCH":"2026-03-26T07:26:55.885920","MEAN_MOTION":13.20787892,"ECCENTRICITY":0.0001657,"INCLINATION":87.9143,"RA_OF_ASC_NODE":290.9929,"ARG_OF_PERICENTER":91.976,"MEAN_ANOMALY":268.1563,"EPHEMERIS_TYPE":0,"CLASSIFICATION_TYPE":"U","NORAD_CAT_ID":49299,"ELEMENT_SET_NO":999,"REV_AT_EPOCH":22008,"BSTAR":-0.0076496,"MEAN_MOTION_DOT":-3.097e-5,"MEAN_MOTION_DDOT":0},{"OBJECT_NAME":"ONEWEB-0374","OBJECT_ID":"2021-090X","EPOCH":"2026-03-26T01:46:52.298688","MEAN_MOTION":13.14500973,"ECCENTRICITY":0.00010918,"INCLINATION":87.8954,"RA_OF_ASC_NODE":306.2859,"ARG_OF_PERICENTER":94.8155,"MEAN_ANOMALY":265.3099,"EPHEMERIS_TYPE":0,"CLASSIFICATION_TYPE":"U","NORAD_CAT_ID":49300,"ELEMENT_SET_NO":999,"REV_AT_EPOCH":21664,"BSTAR":0.00029949425,"MEAN_MOTION_DOT":1.24e-6,"MEAN_MOTION_DDOT":0},{"OBJECT_NAME":"ONEWEB-0375","OBJECT_ID":"2021-090Y","EPOCH":"2026-03-26T12:36:02.306880","MEAN_MOTION":13.2077167,"ECCENTRICITY":0.0001148,"INCLINATION":87.9152,"RA_OF_ASC_NODE":290.939,"ARG_OF_PERICENTER":88.895,"MEAN_ANOMALY":271.2315,"EPHEMERIS_TYPE":0,"CLASSIFICATION_TYPE":"U","NORAD_CAT_ID":49301,"ELEMENT_SET_NO":999,"REV_AT_EPOCH":21961,"BSTAR":0.00011143,"MEAN_MOTION_DOT":5.8e-7,"MEAN_MOTION_DDOT":0},{"OBJECT_NAME":"ONEWEB-0376","OBJECT_ID":"2021-090Z","EPOCH":"2026-03-26T09:30:43.871904","MEAN_MOTION":13.19726178,"ECCENTRICITY":0.0001948,"INCLINATION":87.9212,"RA_OF_ASC_NODE":321.4639,"ARG_OF_PERICENTER":86.6367,"MEAN_ANOMALY":273.4988,"EPHEMERIS_TYPE":0,"CLASSIFICATION_TYPE":"U","NORAD_CAT_ID":49302,"ELEMENT_SET_NO":999,"REV_AT_EPOCH":21553,"BSTAR":2.435e-5,"MEAN_MOTION_DOT":2.3e-7,"MEAN_MOTION_DDOT":0},{"OBJECT_NAME":"ONEWEB-0377","OBJECT_ID":"2021-090AA","EPOCH":"2026-03-26T06:48:30.911904","MEAN_MOTION":13.20770892,"ECCENTRICITY":0.0001635,"INCLINATION":87.9149,"RA_OF_ASC_NODE":290.9887,"ARG_OF_PERICENTER":81.4828,"MEAN_ANOMALY":278.6491,"EPHEMERIS_TYPE":0,"CLASSIFICATION_TYPE":"U","NORAD_CAT_ID":49303,"ELEMENT_SET_NO":999,"REV_AT_EPOCH":21957,"BSTAR":0.00012959,"MEAN_MOTION_DOT":6.6e-7,"MEAN_MOTION_DDOT":0},{"OBJECT_NAME":"ONEWEB-0378","OBJECT_ID":"2021-090AB","EPOCH":"2026-03-26T12:47:35.238336","MEAN_MOTION":13.20771438,"ECCENTRICITY":0.0001605,"INCLINATION":87.9144,"RA_OF_ASC_NODE":290.9484,"ARG_OF_PERICENTER":90.9647,"MEAN_ANOMALY":269.167,"EPHEMERIS_TYPE":0,"CLASSIFICATION_TYPE":"U","NORAD_CAT_ID":49304,"ELEMENT_SET_NO":999,"REV_AT_EPOCH":21887,"BSTAR":6.6922e-5,"MEAN_MOTION_DOT":4.0e-7,"MEAN_MOTION_DDOT":0},{"OBJECT_NAME":"ONEWEB-0379","OBJECT_ID":"2021-090AC","EPOCH":"2026-03-26T08:58:27.895008","MEAN_MOTION":13.14505568,"ECCENTRICITY":0.0001547,"INCLINATION":87.8958,"RA_OF_ASC_NODE":306.2366,"ARG_OF_PERICENTER":88.4109,"MEAN_ANOMALY":271.7198,"EPHEMERIS_TYPE":0,"CLASSIFICATION_TYPE":"U","NORAD_CAT_ID":49305,"ELEMENT_SET_NO":999,"REV_AT_EPOCH":21668,"BSTAR":0.00067972,"MEAN_MOTION_DOT":2.65e-6,"MEAN_MOTION_DDOT":0},{"OBJECT_NAME":"ONEWEB-0380","OBJECT_ID":"2021-090AD","EPOCH":"2026-03-26T09:26:11.239296","MEAN_MOTION":13.19725723,"ECCENTRICITY":0.0001543,"INCLINATION":87.9198,"RA_OF_ASC_NODE":321.4783,"ARG_OF_PERICENTER":76.4532,"MEAN_ANOMALY":283.6773,"EPHEMERIS_TYPE":0,"CLASSIFICATION_TYPE":"U","NORAD_CAT_ID":49306,"ELEMENT_SET_NO":999,"REV_AT_EPOCH":21550,"BSTAR":5.6058e-5,"MEAN_MOTION_DOT":3.5e-7,"MEAN_MOTION_DDOT":0},{"OBJECT_NAME":"ONEWEB-0381","OBJECT_ID":"2021-090AE","EPOCH":"2026-03-26T12:11:02.169600","MEAN_MOTION":13.20771146,"ECCENTRICITY":0.000146,"INCLINATION":87.9149,"RA_OF_ASC_NODE":290.9482,"ARG_OF_PERICENTER":90.8213,"MEAN_ANOMALY":269.3088,"EPHEMERIS_TYPE":0,"CLASSIFICATION_TYPE":"U","NORAD_CAT_ID":49307,"ELEMENT_SET_NO":999,"REV_AT_EPOCH":21891,"BSTAR":0.00021728,"MEAN_MOTION_DOT":1.01e-6,"MEAN_MOTION_DDOT":0},{"OBJECT_NAME":"ONEWEB-0382","OBJECT_ID":"2021-090AF","EPOCH":"2026-03-26T06:25:34.830336","MEAN_MOTION":13.20770676,"ECCENTRICITY":0.0001448,"INCLINATION":87.9149,"RA_OF_ASC_NODE":290.9921,"ARG_OF_PERICENTER":96.0395,"MEAN_ANOMALY":264.0903,"EPHEMERIS_TYPE":0,"CLASSIFICATION_TYPE":"U","NORAD_CAT_ID":49308,"ELEMENT_SET_NO":999,"REV_AT_EPOCH":21887,"BSTAR":-9.8745e-6,"MEAN_MOTION_DOT":9.0e-8,"MEAN_MOTION_DDOT":0},{"OBJECT_NAME":"ONEWEB-0383","OBJECT_ID":"2021-090AG","EPOCH":"2026-03-26T01:30:53.646624","MEAN_MOTION":13.14503493,"ECCENTRICITY":0.00015876,"INCLINATION":87.8959,"RA_OF_ASC_NODE":306.2846,"ARG_OF_PERICENTER":91.1287,"MEAN_ANOMALY":269.0025,"EPHEMERIS_TYPE":0,"CLASSIFICATION_TYPE":"U","NORAD_CAT_ID":49309,"ELEMENT_SET_NO":999,"REV_AT_EPOCH":21667,"BSTAR":0.00069862353,"MEAN_MOTION_DOT":2.72e-6,"MEAN_MOTION_DDOT":0},{"OBJECT_NAME":"ONEWEB-0384","OBJECT_ID":"2021-090AH","EPOCH":"2026-03-26T13:28:47.347968","MEAN_MOTION":13.20808414,"ECCENTRICITY":0.000141,"INCLINATION":87.9149,"RA_OF_ASC_NODE":290.9765,"ARG_OF_PERICENTER":105.0071,"MEAN_ANOMALY":255.1218,"EPHEMERIS_TYPE":0,"CLASSIFICATION_TYPE":"U","NORAD_CAT_ID":49310,"ELEMENT_SET_NO":999,"REV_AT_EPOCH":21892,"BSTAR":-8.7012e-5,"MEAN_MOTION_DOT":-2.2e-7,"MEAN_MOTION_DDOT":0},{"OBJECT_NAME":"ONEWEB-0385","OBJECT_ID":"2021-090AJ","EPOCH":"2026-03-26T06:14:13.339104","MEAN_MOTION":13.20772441,"ECCENTRICITY":0.0001521,"INCLINATION":87.9148,"RA_OF_ASC_NODE":290.9984,"ARG_OF_PERICENTER":92.0641,"MEAN_ANOMALY":268.0666,"EPHEMERIS_TYPE":0,"CLASSIFICATION_TYPE":"U","NORAD_CAT_ID":49311,"ELEMENT_SET_NO":999,"REV_AT_EPOCH":21885,"BSTAR":-4.31e-5,"MEAN_MOTION_DOT":-5.0e-8,"MEAN_MOTION_DDOT":0},{"OBJECT_NAME":"ONEWEB-0386","OBJECT_ID":"2021-090AK","EPOCH":"2026-03-26T06:39:13.165344","MEAN_MOTION":13.20771866,"ECCENTRICITY":0.0001546,"INCLINATION":87.9155,"RA_OF_ASC_NODE":290.9802,"ARG_OF_PERICENTER":96.2713,"MEAN_ANOMALY":263.8596,"EPHEMERIS_TYPE":0,"CLASSIFICATION_TYPE":"U","NORAD_CAT_ID":49312,"ELEMENT_SET_NO":999,"REV_AT_EPOCH":21887,"BSTAR":0.00014517,"MEAN_MOTION_DOT":7.2e-7,"MEAN_MOTION_DDOT":0},{"OBJECT_NAME":"ONEWEB-0387","OBJECT_ID":"2021-090AL","EPOCH":"2026-03-26T11:43:45.473664","MEAN_MOTION":13.20771191,"ECCENTRICITY":0.0001427,"INCLINATION":87.9138,"RA_OF_ASC_NODE":290.9732,"ARG_OF_PERICENTER":82.0881,"MEAN_ANOMALY":278.0414,"EPHEMERIS_TYPE":0,"CLASSIFICATION_TYPE":"U","NORAD_CAT_ID":49313,"ELEMENT_SET_NO":999,"REV_AT_EPOCH":21890,"BSTAR":4.2016e-5,"MEAN_MOTION_DOT":3.0e-7,"MEAN_MOTION_DDOT":0},{"OBJECT_NAME":"ONEWEB-0388","OBJECT_ID":"2021-090AM","EPOCH":"2026-03-26T02:02:39.503616","MEAN_MOTION":13.19725175,"ECCENTRICITY":0.00016176,"INCLINATION":87.9202,"RA_OF_ASC_NODE":321.5366,"ARG_OF_PERICENTER":85.4749,"MEAN_ANOMALY":274.6568,"EPHEMERIS_TYPE":0,"CLASSIFICATION_TYPE":"U","NORAD_CAT_ID":49314,"ELEMENT_SET_NO":999,"REV_AT_EPOCH":21545,"BSTAR":-6.31167e-5,"MEAN_MOTION_DOT":-1.2e-7,"MEAN_MOTION_DDOT":0},{"OBJECT_NAME":"ONEWEB-0389","OBJECT_ID":"2021-132A","EPOCH":"2026-03-26T08:27:23.139360","MEAN_MOTION":13.17651345,"ECCENTRICITY":0.0001489,"INCLINATION":87.9173,"RA_OF_ASC_NODE":22.3179,"ARG_OF_PERICENTER":75.1934,"MEAN_ANOMALY":284.9362,"EPHEMERIS_TYPE":0,"CLASSIFICATION_TYPE":"U","NORAD_CAT_ID":50469,"ELEMENT_SET_NO":999,"REV_AT_EPOCH":20717,"BSTAR":0.00018586,"MEAN_MOTION_DOT":8.5e-7,"MEAN_MOTION_DDOT":0},{"OBJECT_NAME":"ONEWEB-0390","OBJECT_ID":"2021-132B","EPOCH":"2026-03-26T08:29:49.744608","MEAN_MOTION":13.17649124,"ECCENTRICITY":0.0001975,"INCLINATION":87.9172,"RA_OF_ASC_NODE":22.3179,"ARG_OF_PERICENTER":72.2429,"MEAN_ANOMALY":287.8918,"EPHEMERIS_TYPE":0,"CLASSIFICATION_TYPE":"U","NORAD_CAT_ID":50470,"ELEMENT_SET_NO":999,"REV_AT_EPOCH":20717,"BSTAR":0.00024531,"MEAN_MOTION_DOT":1.08e-6,"MEAN_MOTION_DDOT":0},{"OBJECT_NAME":"ONEWEB-0391","OBJECT_ID":"2021-132C","EPOCH":"2026-03-26T08:32:14.726400","MEAN_MOTION":13.17651445,"ECCENTRICITY":0.0001378,"INCLINATION":87.9175,"RA_OF_ASC_NODE":22.3267,"ARG_OF_PERICENTER":53.7757,"MEAN_ANOMALY":306.3502,"EPHEMERIS_TYPE":0,"CLASSIFICATION_TYPE":"U","NORAD_CAT_ID":50471,"ELEMENT_SET_NO":999,"REV_AT_EPOCH":20717,"BSTAR":0.00018727,"MEAN_MOTION_DOT":8.6e-7,"MEAN_MOTION_DDOT":0},{"OBJECT_NAME":"ONEWEB-0392","OBJECT_ID":"2021-132D","EPOCH":"2026-03-26T09:15:59.598144","MEAN_MOTION":13.17650591,"ECCENTRICITY":0.0001542,"INCLINATION":87.9188,"RA_OF_ASC_NODE":22.2825,"ARG_OF_PERICENTER":72.5186,"MEAN_ANOMALY":287.6114,"EPHEMERIS_TYPE":0,"CLASSIFICATION_TYPE":"U","NORAD_CAT_ID":50472,"ELEMENT_SET_NO":999,"REV_AT_EPOCH":20721,"BSTAR":2.8278e-5,"MEAN_MOTION_DOT":2.4e-7,"MEAN_MOTION_DDOT":0}]
